NORAD_CAT_ID,OBJECT_NAME,OBJECT_TYPE,EPOCH,MEAN_MOTION,ECCENTRICITY,INCLINATION,RA_OF_ASC_NODE,ARG_OF_PERICENTER,MEAN_ANOMALY,BSTAR,MEAN_MOTION_DOT,MEAN_MOTION_DDOT,TLE_LINE0,TLE_LINE1,TLE_LINE2,SEMIMAJOR_AXIS,PERIOD,APOGEE,PERIGEE,DECAYED
51114.0,STARLINK-3375,PAYLOAD,2022-09-19 14:24:05,15.08843303,0.0001889999999999,53.2163,217.3196,47.9632,312.152,0.0001612,2.279e-05,0.0,0 STARLINK-3375,1 51114U 22005L   22262.60006256  .00002279  00000-0  16120-3 0  9993,2 51114  53.2163 217.3196 0001890  47.9632 312.1520 15.08843303 37595,6917.87,95.437,541.043,538.428,0.0
51114.0,STARLINK-3375,PAYLOAD,2022-09-20 03:07:09,15.08871788,0.0002166999999999,53.2165,214.9414,46.0986,314.0185,-0.00036495,-6.097e-05,0.0,0 STARLINK-3375,1 51114U 22005L   22263.12997156 -.00006097  00000-0 -36495-3 0  9990,2 51114  53.2165 214.9414 0002167  46.0986 314.0185 15.08871788 38781,6917.783,95.436,541.1469999999998,538.149,0.0
51114.0,STARLINK-3375,PAYLOAD,2022-09-20 06:17:57,15.08838775,0.0001988,53.2164,214.3472,49.2728,310.8436,0.00017038,2.424e-05,0.0,0 STARLINK-3375,1 51114U 22005L   22263.26246599  .00002424  00000-0  17038-3 0  9993,2 51114  53.2164 214.3472 0001988  49.2728 310.8436 15.08838775 38802,6917.884,95.438,541.124,538.374,0.0
51114.0,STARLINK-3375,PAYLOAD,2022-09-21 14:05:39,15.08845077,0.0002088,53.2171,208.3985,49.1429,310.9744,2.339e-05,8.4e-07,0.0,0 STARLINK-3375,1 51114U 22005L   22264.58726350  .00000084  00000-0  23390-4 0  9996,2 51114  53.2171 208.3985 0002088  49.1429 310.9744 15.08845077 39000,6917.865,95.437,541.174,538.285,0.0
51114.0,STARLINK-3375,PAYLOAD,2022-09-21 23:37:59,15.08824838,0.0001889,53.2172,206.6142,49.4436,310.672,0.00022537,3.299e-05,0.0,0 STARLINK-3375,1 51114U 22005L   22264.98471192  .00003299  00000-0  22537-3 0  9993,2 51114  53.2172 206.6142 0001889  49.4436 310.6720 15.08824838 39065,6917.927,95.439,541.099,538.485,0.0
51114.0,STARLINK-3375,PAYLOAD,2022-09-23 02:39:32,15.08836255,0.0001725,53.2166,201.5603,55.8314,304.2841,3.4295e-05,2.58e-06,0.0,0 STARLINK-3375,1 51114U 22005L   22266.11079017  .00000258  00000-0  34295-4 0  9997,2 51114  53.2166 201.5603 0001725  55.8314 304.2841 15.08836255 39237,6917.892,95.438,540.95,538.563,0.0
51114.0,STARLINK-3375,PAYLOAD,2022-09-23 12:11:50,15.08841795,0.0001599,53.2167,199.7767,59.5918,300.5232,9.666e-05,1.251e-05,0.0,0 STARLINK-3375,1 51114U 22005L   22266.50822510  .00001251  00000-0  96660-4 0  9992,2 51114  53.2167 199.7767 0001599  59.5918 300.5232 15.08841795 38188,6917.875,95.437,540.846,538.634,0.0
51114.0,STARLINK-3375,PAYLOAD,2022-09-24 02:30:19,15.08832054,0.0001646,53.2163,197.1003,51.9561,308.158,9.9378e-05,1.294e-05,0.0,0 STARLINK-3375,1 51114U 22005L   22267.10439272  .00001294  00000-0  99378-4 0  9994,2 51114  53.2163 197.1003 0001646  51.9561 308.1580 15.08832054 39383,6917.905,95.438,540.908,538.631,0.0
51114.0,STARLINK-3375,PAYLOAD,2022-09-25 02:21:05,15.08856565,0.0001699999999999,53.2166,192.6389,48.5129,311.6009,-4.3017e-05,-9.73e-06,0.0,0 STARLINK-3375,1 51114U 22005L   22268.09798247 -.00000973  00000-0 -43017-4 0  9997,2 51114  53.2166 192.6389 0001700  48.5129 311.6009 15.08856565 39531,6917.83,95.437,540.871,538.519,0.0
51114.0,STARLINK-3375,PAYLOAD,2022-09-26 02:11:53,15.08833525,0.0001932,53.2174,188.1764,45.639,314.4761,-2.0535e-05,-6.15e-06,0.0,0 STARLINK-3375,1 51114U 22005L   22269.09159618 -.00000615  00000-0 -20535-4 0  9994,2 51114  53.2174 188.1764 0001932  45.6390 314.4761 15.08833525 39685,6917.9,95.438,541.102,538.429,0.0
51114.0,STARLINK-3375,PAYLOAD,2022-09-27 02:02:41,15.08830305,0.0001940999999999,53.2176,183.7143,46.9247,313.1907,-5.184300000000001e-05,-1.113e-05,0.0,0 STARLINK-3375,1 51114U 22005L   22270.08520326 -.00001113  00000-0 -51843-4 0  9993,2 51114  53.2176 183.7143 0001941  46.9247 313.1907 15.08830305 38729,6917.91,95.438,541.118,538.432,0.0
51114.0,STARLINK-3375,PAYLOAD,2022-09-28 03:28:49,15.08852462,0.0001839,53.2168,178.9591,49.5323,310.5829,0.0002566,3.799e-05,0.0,0 STARLINK-3375,1 51114U 22005L   22271.14502198  .00003799  00000-0  25660-3 0  9995,2 51114  53.2168 178.9591 0001839  49.5323 310.5829 15.08852462 39995,6917.842,95.437,540.979,538.435,0.0
51114.0,STARLINK-3375,PAYLOAD,2022-09-28 11:25:44,15.08859254,0.0001831,53.2174,177.4723,51.7714,308.3443,0.0003179,4.778e-05,0.0,0 STARLINK-3375,1 51114U 22005L   22271.47621434  .00004778  00000-0  31790-3 0  9995,2 51114  53.2174 177.4723 0001831  51.7714 308.3443 15.08859254 38930,6917.821999999999,95.436,540.953,538.42,0.0
51114.0,STARLINK-3375,PAYLOAD,2022-09-28 20:58:03,15.08855873,0.0001751999999999,53.2174,175.6869,57.0017,303.1143,0.00026208,3.887e-05,0.0,0 STARLINK-3375,1 51114U 22005L   22271.87365536  .00003887  00000-0  26208-3 0  9995,2 51114  53.2174 175.6869 0001752  57.0017 303.1143 15.08855873 38997,6917.831999999999,95.437,540.909,538.485,0.0
51114.0,STARLINK-3375,PAYLOAD,2022-09-29 03:19:36,15.08848252,0.0001146,53.2155,174.4994,46.4524,313.6563,0.00015262,2.142e-05,0.0,0 STARLINK-3375,1 51114U 22005L   22272.13862062  .00002142  00000-0  15262-3 0  9992,2 51114  53.2155 174.4994 0001146  46.4524 313.6563 15.08848252 40149,6917.855,95.437,540.513,538.927,0.0
51114.0,STARLINK-3375,PAYLOAD,2022-09-29 20:48:53,15.08832373,0.0001688,53.2173,171.2281,82.1156,278.0028,-0.0002141,-3.693e-05,0.0,0 STARLINK-3375,1 51114U 22005L   22272.86728726 -.00003693  00000-0 -21410-3 0  9996,2 51114  53.2173 171.2281 0001688  82.1156 278.0028 15.08832373 39147,6917.904,95.438,540.936,538.601,0.0
51114.0,STARLINK-3375,PAYLOAD,2022-09-29 23:59:39,15.08833178,0.0001792,53.2171,170.634,48.0,312.1145,-0.00020293,-3.516e-05,0.0,0 STARLINK-3375,1 51114U 22005L   22272.99976827 -.00003516  00000-0 -20293-3 0  9999,2 51114  53.2171 170.6340 0001792  48.0000 312.1145 15.08833178 40279,6917.901,95.438,541.006,538.5269999999998,0.0
51114.0,STARLINK-3375,PAYLOAD,2022-09-30 17:28:53,15.08841874,0.0001595,53.2169,167.3608,47.0621,313.0505,1.7962e-06,-2.59e-06,0.0,0 STARLINK-3375,1 51114U 22005L   22273.72839784 -.00000259  00000-0  17962-5 0  9992,2 51114  53.2169 167.3608 0001595  47.0621 313.0505 15.08841874 40389,6917.875,95.437,540.8430000000002,538.636,0.0
51114.0,STARLINK-3375,PAYLOAD,2022-09-30 20:39:39,15.08847817,0.0001699999999999,53.2166,166.7682,44.8175,315.2954,7.6573e-05,9.31e-06,0.0,0 STARLINK-3375,1 51114U 22005L   22273.86087343  .00000931  00000-0  76573-4 0  9991,2 51114  53.2166 166.7682 0001700  44.8175 315.2954 15.08847817 39291,6917.856,95.437,540.898,538.545,0.0
51114.0,STARLINK-3375,PAYLOAD,2022-10-01 09:22:44,15.08856799,0.0001769,53.2154,164.3886,45.5041,314.6096,0.00067498,0.00010476,0.0,0 STARLINK-3375,1 51114U 22005L   22274.39079782  .00010476  00000-0  67498-3 0  9998,2 51114  53.2154 164.3886 0001769  45.5041 314.6096 15.08856799 39371,6917.829000000002,95.436,540.918,538.47,0.0
51114.0,STARLINK-3375,PAYLOAD,2022-10-01 15:44:17,15.08867205,0.0001798,53.2153,163.1991,45.4525,314.6614,0.00083157,0.00012981,0.0,0 STARLINK-3375,1 51114U 22005L   22274.65575442  .00012981  00000-0  83157-3 0  9994,2 51114  53.2153 163.1991 0001798  45.4525 314.6614 15.08867205 40521,6917.797,95.436,540.906,538.418,0.0
51114.0,STARLINK-3375,PAYLOAD,2022-10-01 20:30:26,15.08862396,0.0002064,53.2151,162.3071,41.1567,318.958,0.00052587,8.096e-05,0.0,0 STARLINK-3375,1 51114U 22005L   22274.85447506  .00008096  00000-0  52587-3 0  9990,2 51114  53.2151 162.3071 0002064  41.1567 318.9580 15.08862396 39449,6917.812,95.436,541.105,538.249,0.0
51114.0,STARLINK-3375,PAYLOAD,2022-10-01 23:41:12,15.08853925,0.0001851,53.2154,161.7119,42.9124,317.2012,0.00019847,2.873e-05,0.0,0 STARLINK-3375,1 51114U 22005L   22274.98695493  .00002873  00000-0  19847-3 0  9993,2 51114  53.2154 161.7119 0001851  42.9124 317.2012 15.08853925 40575,6917.8380000000025,95.437,540.9830000000002,538.422,0.0
51114.0,STARLINK-3375,PAYLOAD,2022-10-02 09:13:31,15.0884212,0.0001816,53.2147,159.9295,44.6549,315.4589,-0.00014808,-2.644e-05,0.0,0 STARLINK-3375,1 51114U 22005L   22275.38439693 -.00002644  00000-0 -14808-3 0  9996,2 51114  53.2147 159.9295 0001816  44.6549 315.4589 15.08842120 40633,6917.874,95.437,540.995,538.4830000000002,0.0
51114.0,STARLINK-3375,PAYLOAD,2022-10-02 18:45:51,15.08828107,0.0001911999999999,53.2142,158.1449,55.5221,304.5952,-0.00035004,-5.853e-05,0.0,0 STARLINK-3375,1 51114U 22005L   22275.78184371 -.00005853  00000-0 -35004-3 0  9996,2 51114  53.2142 158.1449 0001912  55.5221 304.5952 15.08828107 40693,6917.917,95.438,541.104,538.4590000000002,0.0
51114.0,STARLINK-3375,PAYLOAD,2022-10-03 01:07:23,15.0883689,0.0001858,53.215,156.9551,49.4131,310.7022,-5.208e-05,-1.117e-05,0.0,0 STARLINK-3375,1 51114U 22005L   22276.04680324 -.00001117  00000-0 -52080-4 0  9998,2 51114  53.2150 156.9551 0001858  49.4131 310.7022 15.08836890 40733,6917.89,95.438,541.04,538.47,0.0
51114.0,STARLINK-3375,PAYLOAD,2022-10-03 18:36:37,15.08859828,0.0001855999999999,53.2151,153.6835,50.6656,309.4501,0.00054603,8.417e-05,0.0,0 STARLINK-3375,1 51114U 22005L   22276.77543654  .00008417  00000-0  54603-3 0  9992,2 51114  53.2151 153.6835 0001856  50.6656 309.4501 15.08859828 39738,6917.82,95.436,540.969,538.401,0.0
51114.0,STARLINK-3375,PAYLOAD,2022-10-04 00:58:10,15.08863989,0.000176,53.2148,152.4941,52.8325,307.2827,0.0009331,0.00014603,0.0,0 STARLINK-3375,1 51114U 22005L   22277.04039760  .00014603  00000-0  93310-3 0  9993,2 51114  53.2148 152.4941 0001760  52.8325 307.2827 15.08863989 40888,6917.807,95.436,540.89,538.455,0.0
51114.0,STARLINK-3375,PAYLOAD,2022-10-04 10:30:28,15.08864933,0.0001841999999999,53.2144,150.7106,53.0537,307.0623,0.00054641,8.425e-05,0.0,0 STARLINK-3375,1 51114U 22005L   22277.43783194  .00008425  00000-0  54641-3 0  9992,2 51114  53.2144 150.7106 0001842  53.0537 307.0623 15.08864933 39832,6917.804,95.436,540.943,538.395,0.0
